ONEWEB-0029             
1 45445U 20020X   25245.91225430  .00000768  00000+0  21297-2 0  9993
2 45445  87.8782  78.2982 0001753  81.9594 278.1733 13.11417345265006
ONEWEB-0068             
1 45446U 20020Y   25245.89599206  .00000103  00000+0  25402-3 0  9992
2 45446  87.8784  78.2900 0001732  80.7991 279.3332 13.11416543264943
ONEWEB-0046             
1 45447U 20020Z   25245.81135963 -.00000086  00000+0 -27852-3 0  9994
2 45447  87.8782  78.3172 0001942  86.3903 273.7447 13.11418253264947
ONEWEB-0063             
1 45448U 20020AA  25245.53500372  .00000517  00000+0  14237-2 0  9993
2 45448  87.8780  78.3705 0001832  92.1263 268.0074 13.11415618264990
ONEWEB-0019             
1 45449U 20020AB  25245.58501164  .00000094  00000+0  22803-3 0  9998
2 45449  87.8777  78.3772 0001604  84.1641 275.9669 13.11419247264842
ONEWEB-0094             
1 45450U 20020AC  25245.93639995  .00000187  00000+0  44794-3 0  9999
2 45450  87.9038  62.9787 0001739  88.3651 271.7680 13.17648072268483
ONEWEB-0087             
1 45451U 20020AD  25245.92650616  .00000251  00000+0  67262-3 0  9999
2 45451  87.8777  78.2413 0001860  80.4305 279.7033 13.11414215264933
ONEWEB-0082             
1 45452U 20020AE  25245.92327133  .00000404  00000+0  11053-2 0  9991
2 45452  87.8777  78.2678 0001639  81.5089 278.6225 13.11416969265022
ONEWEB-0050             
1 45453U 20020AF  25246.00002315  .00067249  00000+0  70979-2 0  9996
2 45453  88.0279 275.5883 0000563  67.5028  40.5137 14.88946719  5627
ONEWEB-0034             
1 45454U 20020AG  25245.94444386 -.00000395  00000+0 -11517-2 0  9991
2 45454  87.8784  78.2845 0001677  86.5269 273.6051 13.11417619264940
ONEWEB-0060             
1 45455U 20020AH  25245.91563503  .00000584  00000+0  16115-2 0  9999
2 45455  87.8773  78.3175 0002118  51.0207 309.1109 13.11419441264894
ONEWEB-0086             
1 45456U 20020AJ  25245.81814472  .00000234  00000+0  62380-3 0  9991
2 45456  87.8784  78.3072 0001318  60.4385 299.6874 13.11420287264943
ONEWEB-0088             
1 45457U 20020AK  25245.94868417 -.00000444  00000+0 -12873-2 0  9990
2 45457  87.8787  78.2274 0001820  86.5552 273.5784 13.11417741264899
ONEWEB-0102             
1 47258U 20100A   25245.72067112 -.00000248  00000+0 -72389-3 0  9990
2 47258  87.8885  47.8056 0001608  97.1403 262.9908 13.12444186227024
ONEWEB-0109             
1 47259U 20100B   25245.88125742  .00000042  00000+0  82351-4 0  9993
2 47259  87.8882  47.7423 0001581  95.6653 264.4656 13.12445247226877
ONEWEB-0110             
1 47260U 20100C   25245.90720445  .00000596  00000+0  16212-2 0  9994
2 47260  87.8879  47.7213 0001548  83.9818 276.1487 13.12443212227040
ONEWEB-0111             
1 47261U 20100D   25245.93802483 -.00000358  00000+0 -10292-2 0  9991
2 47261  87.8883  47.7320 0001676  93.6537 266.4784 13.12442024226886
ONEWEB-0114             
1 47262U 20100E   25245.89261317  .00000341  00000+0  91177-3 0  9994
2 47262  87.8877  47.7351 0001618 104.5954 255.5354 13.12443791226834
ONEWEB-0117             
1 47263U 20100F   25245.88450024  .00000128  00000+0  32010-3 0  9993
2 47263  87.8883  47.7345 0001687  91.1031 269.0291 13.12444663226848
ONEWEB-0118             
1 47264U 20100G   25245.91694501  .00000205  00000+0  53577-3 0  9995
2 47264  87.8880  47.7276 0001857 102.7418 257.3918 13.12441090227046
ONEWEB-0119             
1 47265U 20100H   25245.94451330 -.00000312  00000+0 -90266-3 0  9997
2 47265  87.8879  47.7599 0001648  93.0085 267.1232 13.12443986227025
ONEWEB-0120             
1 47266U 20100J   25245.89112858  .00000329  00000+0  87979-3 0  9994
2 47266  87.8885  47.7710 0001636  97.3600 262.7715 13.12444999227049
ONEWEB-0121             
1 47267U 20100K   25245.87963443 -.00000001  00000+0 -36950-4 0  9990
2 47267  87.8883  47.7404 0001648  90.1143 270.0175 13.12444636226953
ONEWEB-0122             
1 47268U 20100L   25245.72215437 -.00000165  00000+0 -49449-3 0  9995
2 47268  87.8882  47.7746 0001539  92.8014 267.3290 13.12443776226846
ONEWEB-0123             
1 47269U 20100M   25245.94613109 -.00000269  00000+0 -78447-3 0  9993
2 47269  87.8878  47.7581 0001794  94.6526 265.4807 13.12442432227011
ONEWEB-0124             
1 47270U 20100N   25245.93478060 -.00000277  00000+0 -80637-3 0  9992
2 47270  87.8883  47.7618 0001762  87.6090 272.5241 13.12441844226895
ONEWEB-0125             
1 47271U 20100P   25245.91207650  .00000402  00000+0  10813-2 0  9992
2 47271  87.8880  47.7295 0001969  92.0166 268.1188 13.12442314226958
ONEWEB-0126             
1 47272U 20100Q   25245.93327940 -.00000240  00000+0 -70123-3 0  9993
2 47272  87.8889  47.7457 0001660  96.0201 264.1117 13.12441038227029
ONEWEB-0127             
1 47273U 20100R   25245.89910127  .00000492  00000+0  13322-2 0  9998
2 47273  87.8883  47.7659 0001598  96.4735 263.6576 13.12443096227045
ONEWEB-0128             
1 47274U 20100S   25245.92180580  .00000061  00000+0  13542-3 0  9992
2 47274  87.8877  47.7860 0001458  88.5263 271.6033 13.12441896227061
ONEWEB-0129             
1 47275U 20100T   25245.90072515  .00000486  00000+0  13164-2 0  9999
2 47275  87.8883  47.7342 0001462 136.7948 223.3296 13.12443493226996
ONEWEB-0130             
1 47276U 20100U   25245.92829230 -.00000147  00000+0 -44427-3 0  9999
2 47276  87.8877  47.7259 0001558  92.1260 268.0047 13.12442128226966
ONEWEB-0131             
1 47277U 20100V   25245.92505509  .00000389  00000+0  10450-2 0  9994
2 47277  87.8886  47.7550 0001705  89.8901 270.2423 13.12444775227009
ONEWEB-0132             
1 47278U 20100W   25245.87801226 -.00000104  00000+0 -32555-3 0  9992
2 47278  87.8884  47.7677 0001835  87.4693 272.6645 13.12444460226893
ONEWEB-0133             
1 47279U 20100X   25245.89409107  .00000432  00000+0  11648-2 0  9998
2 47279  87.8867  47.7353 0001606  88.2722 271.8591 13.12444363227056
ONEWEB-0134             
1 47280U 20100Y   25245.93964678 -.00000362  00000+0 -10417-2 0  9991
2 47280  87.8882  47.7119 0001436  92.5612 267.5681 13.12442560227039
ONEWEB-0135             
1 47281U 20100Z   25245.91045189  .00000425  00000+0  11454-2 0  9997
2 47281  87.8882  47.7581 0001290  85.2660 274.8616 13.12441264227054
ONEWEB-0136             
1 47282U 20100AA  25245.92990942 -.00000201  00000+0 -59311-3 0  9994
2 47282  87.8882  47.7225 0001241  96.7673 263.3597 13.12441214226984
ONEWEB-0137             
1 47283U 20100AB  25245.73527229  .00000300  00000+0  79769-3 0  9995
2 47283  87.8883  47.7676 0001801  97.9819 262.1514 13.12444500226867
ONEWEB-0138             
1 47284U 20100AC  25245.71417936 -.00000363  00000+0 -10445-2 0  9993
2 47284  87.8882  47.7819 0001587  94.1054 266.0256 13.12442584226942
ONEWEB-0139             
1 47285U 20100AD  25245.90574412  .00000491  00000+0  13286-2 0  9994
2 47285  87.8874  47.7352 0001688  93.2225 266.9097 13.12442624227047
ONEWEB-0140             
1 47286U 20100AE  25245.93640342 -.00000335  00000+0 -96614-3 0  9990
2 47286  87.8880  47.7128 0001589  93.5091 266.6219 13.12442124227015
ONEWEB-0141             
1 47287U 20100AF  25245.90544787  .00000473  00000+0  12788-2 0  9994
2 47287  87.8871  47.7348 0001920 100.3787 259.7558 13.12442619226992
ONEWEB-0142             
1 47288U 20100AG  25245.89436081  .00000419  00000+0  11295-2 0  9992
2 47288  87.8887  47.7519 0001790 105.7410 254.3916 13.12442378226987
ONEWEB-0143             
1 47289U 20100AH  25245.90396700  .00000463  00000+0  12509-2 0  9996
2 47289  87.8883  47.7469 0001694  92.2293 267.9030 13.12442005226962
ONEWEB-0144             
1 47290U 20100AJ  25245.87638909 -.00000135  00000+0 -41030-3 0  9994
2 47290  87.8874  47.7287 0001572 102.2406 257.8899 13.12444130226888
ONEWEB-0145             
1 47291U 20100AK  25245.92343091  .00000031  00000+0  49521-4 0  9993
2 47291  87.8881  47.7496 0001616  95.3365 264.7948 13.12441264227084
ONEWEB-0146             
1 47292U 20100AL  25245.92018663  .00000114  00000+0  28083-3 0  9999
2 47292  87.8881  47.7368 0001834  82.7288 277.4049 13.12441760226992
ONEWEB-0147             
1 47293U 20100AM  25245.88612571  .00000186  00000+0  48204-3 0  9999
2 47293  87.8882  47.7221 0001406  90.7021 269.4269 13.12445804226887
ONEWEB-0115             
1 48042U 21025A   25245.91001148  .00000187  00000+0  47590-3 0  9993
2 48042  87.9021  17.2792 0001745  95.8025 264.3303 13.13470358215881
ONEWEB-0152             
1 48043U 21025B   25245.92354872 -.00000205  00000+0 -59575-3 0  9999
2 48043  87.9019  17.2905 0001706  93.8879 266.2445 13.13469625215846
ONEWEB-0153             
1 48044U 21025C   25245.90154922  .00000304  00000+0  79759-3 0  9996
2 48044  87.9022  17.2941 0001743  99.2805 260.8521 13.13469513215831
ONEWEB-0154             
1 48045U 21025D   25245.82197644  .00000296  00000+0  77556-3 0  9999
2 48045  87.9018  17.3075 0001675  96.3914 263.7406 13.13472825215787
ONEWEB-0116             
1 48046U 21025E   25245.86091716 -.00000224  00000+0 -64946-3 0  9999
2 48046  87.9021  17.2817 0001769  93.1098 267.0234 13.13470832215936
ONEWEB-0150             
1 48047U 21025F   25245.91338976  .00000097  00000+0  23098-3 0  9997
2 48047  87.9023  17.2663 0001913 100.5584 259.5760 13.13469486215834
ONEWEB-0107             
1 48048U 21025G   25245.83890520  .00000024  00000+0  30540-4 0  9998
2 48048  87.9019  17.2791 0001639 107.9639 252.1669 13.13469459215803
ONEWEB-0101             
1 48049U 21025H   25245.80166701  .00000044  00000+0  84664-4 0  9991
2 48049  87.9019  17.3258 0001559 100.0225 260.1080 13.13471424215776
ONEWEB-0113             
1 48050U 21025J   25245.93332487 -.00000177  00000+0 -51538-3 0  9995
2 48050  87.9017  17.2420 0001840  92.5167 267.6174 13.13977324215887
ONEWEB-0112             
1 48051U 21025K   25245.92018167 -.00001252  00000+0 -34641-2 0  9991
2 48051  87.9022  17.2598 0001853  99.3115 260.8223 13.13460389215880
